[{"OBJECT_NAME":"OSCAR 31","OBJECT_ID":"1988-074B","EPOCH":"2026-03-15T06:27:21.055680","MEAN_MOTION":13.42598926,"ECCENTRICITY":0.00937762,"INCLINATION":90.0444,"RA_OF_ASC_NODE":20.9293,"ARG_OF_PERICENTER":337.8077,"MEAN_ANOMALY":138.83,"EPHEMERIS_TYPE":0,"CLASSIFICATION_TYPE":"U","NORAD_CAT_ID":19420,"ELEMENT_SET_NO":999,"REV_AT_EPOCH":83892,"BSTAR":0.00012051242,"MEAN_MOTION_DOT":7.8e-7,"MEAN_MOTION_DDOT":0}]
