OSCAR 31                
1 19420U 88074B   26074.26899370  .00000078  00000+0  12051-3 0  9992
2 19420  90.0444  20.9293 0093776 337.8077 138.8300 13.42598926838923
